ONEWEB-0120             
1 47266U 20100J   24235.96563323 -.00000410  00000+0 -11764-2 0  9998
2 47266  87.8925 122.7683 0001933  81.2978 278.8370 13.12442683177730
ONEWEB-0121             
1 47267U 20100K   24235.95414472 -.00000481  00000+0 -13730-2 0  9991
2 47267  87.8919 122.7580 0001692  76.7185 283.4132 13.12442438177647
ONEWEB-0122             
1 47268U 20100L   24235.94913746 -.00000343  00000+0 -98980-3 0  9997
2 47268  87.8919 122.7637 0001748  81.3633 278.7694 13.12440387177554
ONEWEB-0123             
1 47269U 20100M   24235.94441221 -.00000345  00000+0 -99577-3 0  9997
2 47269  87.8923 122.7809 0001924  77.9803 282.1541 13.12440246177696
ONEWEB-0124             
1 47270U 20100N   24235.70435173 -.00000113  00000+0 -34962-3 0  9992
2 47270  87.8924 122.8252 0001607  71.9523 288.1780 13.12438891177541
ONEWEB-0125             
1 47271U 20100P   24235.75788339  .00000488  00000+0  13202-2 0  9999
2 47271  87.8924 122.7745 0002007  70.4910 289.6435 13.12444117177616
ONEWEB-0126             
1 47272U 20100Q   24235.93548928 -.00000132  00000+0 -40364-3 0  9996
2 47272  87.8921 122.7427 0001910  81.1459 278.9885 13.12439605177706
ONEWEB-0127             
1 47273U 20100R   24235.97360959  .00000248  00000+0  65331-3 0  9994
2 47273  87.8924 122.7658 0001859  80.6317 279.5022 13.12445888177738
